satname,norad_id,inclination_deg,eccentricity,mean_motion_rev_per_day,perigee_km,apogee_km,l1,l2
STARLINK-1316,45415,53.1541,0.0001252,15.4214356,438.93050444592063,440.637711891407,1 45415U 20019BH  26193.66414774  .00036451  00000+0  84355-3 0  9997,2 45415  53.1541 263.5622 0001252 303.3793  56.7093 15.42143560349203
STARLINK-1286,45417,53.0425,0.0006574,15.682283,359.5378854911269,368.40240796764647,1 45417U 20019BK  26193.51741928  .00041346  00000+0  36562-3 0  9993,2 45417  53.0425 243.8871 0006574  12.8038 347.3144 15.68228300349691
STARLINK-1308,45419,53.0443,0.0003649,15.69226962,358.65022383855376,363.5685258429112,1 45419U 20019BM  26193.51320796  .00035068  00000+0  29888-3 0  9998,2 45419  53.0443 262.9627 0003649 120.1423 239.9955 15.69226962349177
STARLINK-1329,45531,53.0371,0.0003898,15.78177706,332.98680991247784,338.22084226049446,1 45531U 20025A   26193.00723357  .00059073  00000+0  33968-3 0  9990,2 45531  53.0371 187.1003 0003898  21.0854 339.0326 15.78177706344979
STARLINK-1338,45532,53.0394,0.0003012,15.74941095,342.7738593884951,346.82375591902564,1 45532U 20025B   26193.43454489  .00047677  00000+0  31742-3 0  9990,2 45532  53.0394 192.6116 0003012  66.1999 293.9335 15.74941095344939
STARLINK-1350,45535,53.0695,0.0001755,15.40119978,444.5573066518009,446.9524927085895,1 45535U 20025E   26193.38740922  .00034948  00000+0  86531-3 0  9990,2 45535  53.0695 166.0998 0001755  70.1531 289.9662 15.40119978345342
STARLINK-1362,45538,53.1531,0.0005403,15.40367939,441.33600878720245,448.70911500979037,1 45538U 20025H   26193.15668258 -.00027710  00000+0 -66804-3 0  9991,2 45538  53.1531 238.7108 0005403 342.7566  17.3255 15.40367939344291
STARLINK-1368,45540,53.1541,0.0003856,15.40716695,441.362251370836,446.62347792245055,1 45540U 20025K   26193.62017093  .00036344  00000+0  88174-3 0  9996,2 45540  53.1541 236.8456 0003856 343.0372  17.0503 15.40716695344356
STARLINK-1371,45542,53.0393,0.0002614,15.71884075,351.75289852606693,355.27220491170647,1 45542U 20025M   26193.55113902  .00042141  00000+0  32045-3 0  9994,2 45542  53.0393 202.6501 0002614  57.6031 302.5239 15.71884075344805
STARLINK-1372,45543,53.155,0.000425,15.41126585,439.8842755071828,445.6820576487735,1 45543U 20025N   26193.11478573  .00030296  00000+0  72726-3 0  9993,2 45543  53.1550 238.6207 0004250 334.6385  25.4411 15.41126585343389
STARLINK-1373,45544,53.0426,0.0002686,15.73583405,346.858471741858,350.4721099324952,1 45544U 20025P   26193.00913731  .00035008  00000+0  24865-3 0  9999,2 45544  53.0426 199.9829 0002686  26.6284 333.4872 15.73583405344799
STARLINK-1327,45555,53.0377,0.0002385,15.75611699,341.28811882186255,344.4940492179403,1 45555U 20025AA  26193.36647723  .00051317  00000+0  33141-3 0  9993,2 45555  53.0377 175.3215 0002385  80.8729 279.2559 15.75611699345165
STARLINK-1356,45564,53.0391,0.0004753,15.68168357,360.93735113583716,367.3465615117184,1 45564U 20025AK  26193.37538020  .00031595  00000+0  28175-3 0  9990,2 45564  53.0391 189.7613 0004753  45.6366 314.5039 15.68168357344962
STARLINK-1357,45565,53.0415,0.0001288,15.73557784,347.87188724249427,349.6047303220357,1 45565U 20025AL  26193.30193710  .00046396  00000+0  32806-3 0  9998,2 45565  53.0415 145.6371 0001288 206.0028 154.0926 15.73557784345583
STARLINK-1361,45567,53.0382,0.000265,15.71995814,351.40975052028625,354.97735571343765,1 45567U 20025AN  26193.84273507  .00049445  00000+0  37312-3 0  9997,2 45567  53.0382 185.3131 0002650  75.1351 284.9959 15.71995814345072
STARLINK-1376,45570,53.1579,0.0002229,15.41539224,440.04578519908137,443.08600875055345,1 45570U 20025AR  26192.43422095  .00027574  00000+0  65415-3 0  9997,2 45570  53.1579 218.1316 0002229 340.6873  19.4048 15.41539224344510
STARLINK-1320,45572,53.0345,0.0002704,16.01536758,268.36467099269885,271.96007129261216,1 45572U 20025AT  26193.06364003  .00271181  42634-4  47756-3 0  9990,2 45572  53.0345  80.3548 0002704 140.7609 219.3618 16.01536758346480
STARLINK-1321,45573,53.0383,0.0001846,15.72497728,350.5187884092102,353.00346679792256,1 45573U 20025AU  26193.39566602  .00043215  00000+0  32009-3 0  9992,2 45573  53.0383 171.2926 0001846  84.3615 275.7613 15.72497728344927
STARLINK-1331,45578,53.043,0.0002069,15.72234758,351.11895834618554,353.90410070770304,1 45578U 20025AZ  26193.80540081  .00050477  00000+0  37696-3 0  9991,2 45578  53.0430 176.2375 0002069  74.6480 285.4766 15.72234758345209
STARLINK-1333,45580,53.1521,0.000441,15.38662953,447.05087209432713,453.07334370749504,1 45580U 20025BB  26193.52290157  .00051557  00000+0  13309-2 0  9993,2 45580  53.1521 215.2574 0004410   2.5351 357.5675 15.38662953344650
STARLINK-1335,45581,53.1523,0.0003648,15.40123306,443.25571715402566,448.234421511811,1 45581U 20025BC  26193.06013692  .00034140  00000+0  84546-3 0  9991,2 45581  53.1523 213.7358 0003648 327.5136  32.5644 15.40123306344629
STARLINK-1337,45582,53.04,0.0001749,15.79913541,329.5120061208545,331.8587521890822,1 45582U 20025BD  26193.79545253  .00082241  00000+0  43485-3 0  9997,2 45582  53.0400 163.4558 0001749 108.8557 251.2653 15.79913541345365
STARLINK-1347,45586,53.0342,0.0001608,15.72536704,350.5677751228113,352.7320745978459,1 45586U 20025BH  26193.86954263  .00055392  00000+0  40774-3 0  9999,2 45586  53.0342 135.2538 0001608  74.3604 285.7591 15.72536704345765
STARLINK-1364,45589,53.0392,0.0004431,15.73181579,346.82953964311764,352.7918468888902,1 45589U 20025BL  26192.97042199  .00043157  00000+0  31040-3 0  9991,2 45589  53.0392 176.2366 0004431  50.1098 310.0309 15.73181579345118
STARLINK-1365,45590,53.0415,0.0002537,15.68327067,361.9766822627407,365.39748380247147,1 45590U 20025BM  26193.42440425  .00030266  00000+0  26851-3 0  9999,2 45590  53.0415 209.7681 0002537  41.8234 318.2976 15.68327067344704
STARLINK-1443,45660,53.1302,0.000245,15.35175144,458.7248767011961,462.07575998718585,1 45660U 20035D   26193.06446020  .00028529  00000+0  83156-3 0  9995,2 45660  53.1302 206.7585 0002450  43.3204 316.7991 15.35175144337800
STARLINK-1446,45663,53.0203,0.0002529,15.49664485,415.9881271159338,419.4254649079576,1 45663U 20035G   26192.99162832  .00021452  00000+0  38780-3 0  9996,2 45663  53.0203 126.0730 0002529  20.2039 339.9068 15.49664485338905
STARLINK-1448,45665,53.0386,0.000219,15.7720082,336.90485972420265,339.8466923201004,1 45665U 20035J   26193.84538935  .00075379  00000+0  45088-3 0  9990,2 45665  53.0386 158.7681 0002190  94.9764 265.1505 15.77200820338516
STARLINK-1451,45668,53.0483,0.0001978,15.15775845,517.2599863677024,519.9883450848647,1 45668U 20035M   26193.46181432  .00014631  00000+0  77196-3 0  9996,2 45668  53.0483 220.1614 0001978   6.5195 353.5823 15.15775845337630
STARLINK-1452,45669,53.0211,0.0006933,15.64810549,369.10256611248224,378.46477931726804,1 45669U 20035N   26193.84833878  .00038232  00000+0  38836-3 0  9998,2 45669  53.0211 136.6500 0006933  68.6144 291.5609 15.64810549338835
STARLINK-1453,45670,53.0355,0.0001835,15.78055306,334.71894871688073,337.1830190069577,1 45670U 20035P   26193.80164648  .00088793  00000+0  50983-3 0  9992,2 45670  53.0355 119.1241 0001835 159.2666 200.8429 15.78055306338960
STARLINK-1454,45671,53.0396,0.0001838,15.75623904,341.62105738578794,344.09169455079336,1 45671U 20035Q   26193.88544697  .00072456  00000+0  46485-3 0  9998,2 45671  53.0396 160.2061 0001838  69.4933 290.6283 15.75623904338490
STARLINK-1456,45673,53.0385,0.0001812,15.71877876,352.3104719635703,354.75002817499535,1 45673U 20035S   26193.33700486  .00042571  00000+0  32376-3 0  9999,2 45673  53.0385 158.1466 0001812  85.5261 274.5963 15.71877876338491
STARLINK-1458,45675,53.043,0.0004493,15.63506224,374.5029325621499,380.57358234849926,1 45675U 20035U   26193.36168787  .00061662  00000+0  65438-3 0  9993,2 45675  53.0430 174.8474 0004493  52.6259 307.5163 15.63506224338225
STARLINK-1460,45676,53.1533,0.0004557,15.38251949,448.16616897137646,454.39049810636334,1 45676U 20035V   26193.04783236  .00031431  00000+0  82847-3 0  9995,2 45676  53.1533 204.7254 0004557  17.3554 342.7605 15.38251949337793
STARLINK-1392,45677,53.1498,0.0005106,15.41765005,437.4182809824424,444.3818816498824,1 45677U 20035W   26193.05481032  .00031495  00000+0  73963-3 0  9995,2 45677  53.1498 202.4805 0005106   6.3359 353.7710 15.41765005337867
STARLINK-1394,45679,53.0372,0.0001705,15.70391367,356.6291704590594,358.926117352632,1 45679U 20035Y   26193.86991913  .00048029  00000+0  38784-3 0  9993,2 45679  53.0372 146.0248 0001705  99.1314 260.9896 15.70391367338701
STARLINK-1402,45685,53.0383,0.0001266,15.6749726,365.2123967784719,366.92002903197863,1 45685U 20035AE  26193.25068609  .00033623  00000+0  30782-3 0  9994,2 45685  53.0383 141.4921 0001266 112.7663 247.3486 15.67497260338729
STARLINK-1404,45686,53.154,0.0004702,15.47794591,419.981098128982,426.37705576774533,1 45686U 20035AF  26193.36386224  .00048929  00000+0  92987-3 0  9993,2 45686  53.1540 181.1491 0004702   2.8932 357.2103 15.47794591338198
STARLINK-1413,45689,53.1538,0.0004896,15.38020466,448.6195494441963,455.3075839190915,1 45689U 20035AJ  26193.47938012  .00029448  00000+0  78286-3 0  9997,2 45689  53.1538 187.3721 0004896  18.2342 341.8837 15.38020466338031
STARLINK-1417,45693,53.0458,0.0002526,15.18387135,508.9745045326026,512.4547523752981,1 45693U 20035AN  26193.36958820  .00012201  00000+0  60043-3 0  9990,2 45693  53.0458 206.6054 0002526 305.2743  54.8014 15.18387135337801
STARLINK-1420,45695,53.042,0.0001362,15.74631587,344.7639639523404,346.5955316344389,1 45695U 20035AQ  26193.23304102  .00054026  00000+0  36376-3 0  9999,2 45695  53.0420 131.4756 0001362 146.7172 213.3932 15.74631587338859
STARLINK-1422,45696,53.153,0.0001789,15.39851599,445.3268261659241,447.768698373864,1 45696U 20035AR  26193.19981797  .00033796  00000+0  84468-3 0  9992,2 45696  53.1530 188.3862 0001789  77.9135 282.2071 15.39851599338070
